OBJECTID,scalerank,featurecla,LABELRANK,SOVEREIGNT,SOV_A3,ADM0_DIF,LEVEL,TYPE,ADMIN,ADM0_A3,GEOU_DIF,GEOUNIT,GU_A3,SU_DIF,SUBUNIT,SU_A3,BRK_DIFF,NAME,NAME_LONG,BRK_A3,BRK_NAME,BRK_GROUP,ABBREV,POSTAL,FORMAL_EN,MAPCOLOR7,MAPCOLOR8,MAPCOLOR9,MAPCOLOR13,ISO_A3,UN_A3,ADM0_A3_IS,ADM0_A3_US,SHAPE_Leng,SHAPE_Area,longitude,latitude
1,1,Admin-0 country,3,Afghanistan,AFG,0,2,Sovereign country,Afghanistan,AFG,0,Afghanistan,AFG,0,Afghanistan,AFG,0,Afghanistan,Afghanistan,AFG,Afghanistan,,Afg.,AF,Islamic State of Afghanistan,5,6,8,7,AFG,4,AFG,AFG,3834635.245,5.05744E+11,66.18062379,33.91586979
2,3,Admin-0 country,6,Finland,FI1,1,2,Country,Aland,ALD,0,Aland,ALD,0,Aland,ALD,0,Åland,Åland Islands,ALD,Åland,,Åland,AI,Åland Islands,4,1,4,6,ALA,248,ALA,ALD,166963.6765,1616686704,19.93048381,60.22495188
3,1,Admin-0 country,6,Albania,ALB,0,2,Sovereign country,Albania,ALB,0,Albania,ALB,0,Albania,ALB,0,Albania,Albania,ALB,Albania,,Alb.,AL,Republic of Albania,1,4,1,6,ALB,8,ALB,ALB,769383.3919,25105069887,20.08163589,41.12243227
4,1,Admin-0 country,3,Algeria,DZA,0,2,Sovereign country,Algeria,DZA,0,Algeria,DZA,0,Algeria,DZA,0,Algeria,Algeria,DZA,Algeria,,Alg.,DZ,People's Democratic Republic of Algeria,5,1,6,3,DZA,12,DZA,DZA,5632758.182,1.68639E+12,2.508890707,28.1286015
5,1,Admin-0 country,3,Angola,AGO,0,2,Sovereign country,Angola,AGO,0,Angola,AGO,0,Angola,AGO,0,Angola,Angola,AGO,Angola,,Ang.,AO,People's Republic of Angola,3,2,6,1,AGO,24,AGO,AGO,4764790.718,7.88474E+11,17.53115592,-12.29159062
6,3,Admin-0 country,6,Andorra,AND,0,2,Sovereign country,Andorra,AND,0,Andorra,AND,0,Andorra,AND,0,Andorra,Andorra,AND,Andorra,,And.,AND,Principality of Andorra,1,4,1,8,AND,20,AND,AND,74453.80843,254828945.9,1.524382684,42.46271186
7,1,Admin-0 country,4,Antarctica,ATA,0,2,Indeterminate,Antarctica,ATA,0,Antarctica,ATA,0,Antarctica,ATA,0,Antarctica,Antarctica,ATA,Antarctica,,Ant.,AQ,,4,5,1,-99,ATA,-99,ATA,ATA,79728398.31,8.09371E+13,21.38813801,-76
8,1,Admin-0 country,6,Antigua and Barbuda,ATG,0,2,Sovereign country,Antigua and Barbuda,ATG,0,Antigua and Barbuda,ATG,0,Antigua and Barbuda,ATG,0,Antigua and Barb.,Antigua and Barbuda,ATG,Antigua and Barb.,,Ant.B.,AG,Antigua and Barbuda,2,2,5,5,ATG,28,ATG,ATG,79825.98499,395963633.1,-61.77712939,17.0848165
9,1,Admin-0 country,2,Argentina,ARG,0,2,Sovereign country,Argentina,ARG,0,Argentina,ARG,0,Argentina,ARG,0,Argentina,Argentina,ARG,Argentina,,Arg.,AR,Argentine Republic,3,1,3,13,ARG,32,ARG,ARG,10093844.64,2.24406E+12,-64.84228417,-35.24119333
10,1,Admin-0 country,6,Armenia,ARM,0,2,Sovereign country,Armenia,ARM,0,Armenia,ARM,0,Armenia,ARM,0,Armenia,Armenia,ARM,Armenia,,Arm.,ARM,Republic of Armenia,3,1,2,10,ARM,51,ARM,ARM,842703.7578,30732715523,44.94853164,40.37273898
11,1,Admin-0 country,2,Australia,AU1,1,2,Country,Australia,AUS,0,Australia,AUS,0,Australia,AUS,0,Australia,Australia,AUS,Australia,,Auz.,AU,Commonwealth of Australia,1,2,2,7,AUS,36,AUS,AUS,14033858.81,5.52934E+12,134.3602516,-25.62069682
12,1,Admin-0 country,4,Austria,AUT,0,2,Sovereign country,Austria,AUT,0,Austria,AUT,0,Austria,AUT,0,Austria,Austria,AUT,Austria,,Aust.,A,Republic of Austria,3,1,3,4,AUT,40,AUT,AUT,1582027.434,89618034696,13.99273497,47.57301776
13,1,Admin-0 country,5,Azerbaijan,AZE,0,2,Sovereign country,Azerbaijan,AZE,0,Azerbaijan,AZE,0,Azerbaijan,AZE,0,Azerbaijan,Azerbaijan,AZE,Azerbaijan,,Aze.,AZ,Republic of Azerbaijan,1,6,5,8,AZE,31,AZE,AZE,1824353.423,74865215015,47.7881702,40.33362106
14,1,Admin-0 country,4,The Bahamas,BHS,0,2,Sovereign country,The Bahamas,BHS,0,The Bahamas,BHS,0,The Bahamas,BHS,0,Bahamas,Bahamas,BHS,Bahamas,,Bhs.,BS,Commonwealth of the Bahamas,1,1,2,5,BHS,44,BHS,BHS,863173.6644,8367582259,-77.25656709,26.43904954
15,1,Admin-0 country,4,Bahrain,BHR,0,2,Sovereign country,Bahrain,BHR,0,Bahrain,BHR,0,Bahrain,BHR,0,Bahrain,Bahrain,BHR,Bahrain,,Bahr.,BH,Kingdom of Bahrain,1,1,1,9,BHR,48,BHR,BHR,107834.5632,452684877.2,50.5423869,26.06282273
16,1,Admin-0 country,3,Bangladesh,BGD,0,2,Sovereign country,Bangladesh,BGD,0,Bangladesh,BGD,0,Bangladesh,BGD,0,Bangladesh,Bangladesh,BGD,Bangladesh,,Bang.,BD,People's Republic of Bangladesh,3,4,7,7,BGD,50,BGD,BGD,2004423.687,97782453629,90.29526755,23.68867571
17,1,Admin-0 country,5,Barbados,BRB,0,2,Sovereign country,Barbados,BRB,0,Barbados,BRB,0,Barbados,BRB,0,Barbados,Barbados,BRB,Barbados,,Barb.,BB,Barbados,4,1,5,3,BRB,52,BRB,BRB,87505.46275,318521023.1,-59.54972045,13.16585529
18,1,Admin-0 country,4,Belarus,BLR,0,2,Sovereign country,Belarus,BLR,0,Belarus,BLR,0,Belarus,BLR,0,Belarus,Belarus,BLR,Belarus,,Bela.,BY,Republic of Belarus,1,1,5,11,BLR,112,BLR,BLR,2246117.254,2.68936E+11,28.13947496,53.55118333
19,1,Admin-0 country,2,Belgium,BEL,0,2,Sovereign country,Belgium,BEL,0,Belgium,BEL,0,Belgium,BEL,0,Belgium,Belgium,BEL,Belgium,,Belg.,B,Kingdom of Belgium,3,2,1,8,BEL,56,BEL,BEL,841351.8599,33970926305,4.569705012,50.76870694
20,1,Admin-0 country,6,Belize,BLZ,0,2,Sovereign country,Belize,BLZ,0,Belize,BLZ,0,Belize,BLZ,0,Belize,Belize,BLZ,Belize,,Belize,BZ,Belize,1,4,5,7,BLZ,84,BLZ,BLZ,588109.127,13931024456,-88.69519135,17.19283932
21,1,Admin-0 country,5,Benin,BEN,0,2,Sovereign country,Benin,BEN,0,Benin,BEN,0,Benin,BEN,0,Benin,Benin,BEN,Benin,,Benin,BJ,Republic of Benin,1,2,2,12,BEN,204,BEN,BEN,1346811.509,76430878614,2.265896009,9.260690275
22,1,Admin-0 country,5,Bhutan,BTN,0,2,Sovereign country,Bhutan,BTN,0,Bhutan,BTN,0,Bhutan,BTN,0,Bhutan,Bhutan,BTN,Bhutan,,Bhutan,BT,Kingdom of Bhutan,5,6,1,8,BTN,64,BTN,BTN,678709.2531,27423889973,90.40963275,27.38780967
23,1,Admin-0 country,3,Bolivia,BOL,0,2,Sovereign country,Bolivia,BOL,0,Bolivia,BOL,0,Bolivia,BOL,0,Bolivia,Bolivia,BOL,Bolivia,,Bolivia,BO,Plurinational State of Bolivia,1,5,2,3,BOL,68,BOL,BOL,3867829.12,7.1314E+11,-64.74771204,-16.67173497
24,1,Admin-0 country,5,Bosnia and Herzegovina,BIH,0,2,Sovereign country,Bosnia and Herzegovina,BIH,0,Bosnia and Herzegovina,BIH,0,Bosnia and Herzegovina,BIH,0,Bosnia and Herz.,Bosnia and Herzegovina,BIH,Bosnia and Herz.,,B.H.,BiH,Bosnia and Herzegovina,1,1,1,2,BIH,70,BIH,BIH,963693.3058,47403057525,17.77294574,44.17929524
25,1,Admin-0 country,4,Botswana,BWA,0,2,Sovereign country,Botswana,BWA,0,Botswana,BWA,0,Botswana,BWA,0,Botswana,Botswana,BWA,Botswana,,Bwa.,BW,Republic of Botswana,6,5,7,3,BWA,72,BWA,BWA,2702219.448,3.99894E+11,23.89168264,-22.09612812
26,1,Admin-0 country,2,Brazil,BRA,0,2,Sovereign country,Brazil,BRA,0,Brazil,BRA,0,Brazil,BRA,0,Brazil,Brazil,BRA,Brazil,,Brazil,BR,Federative Republic of Brazil,5,6,5,7,BRA,76,BRA,BRA,13622201.88,5.30251E+12,-53.18182631,-10.86066964
27,1,Admin-0 country,6,Brunei,BRN,0,2,Sovereign country,Brunei,BRN,0,Brunei,BRN,0,Brunei,BRN,0,Brunei,Brunei Darussalam,BRN,Brunei,,Brunei,BN,Negara Brunei Darussalam,4,6,6,12,BRN,96,BRN,BRN,311956.2917,4186276294,114.7304701,4.543551739
28,1,Admin-0 country,4,Bulgaria,BGR,0,2,Sovereign country,Bulgaria,BGR,0,Bulgaria,BGR,0,Bulgaria,BGR,0,Bulgaria,Bulgaria,BGR,Bulgaria,,Bulg.,BG,Republic of Bulgaria,4,5,1,8,BGR,100,BGR,BGR,1486192.531,1.11338E+11,25.14341495,42.77620481
29,1,Admin-0 country,3,Burkina Faso,BFA,0,2,Sovereign country,Burkina Faso,BFA,0,Burkina Faso,BFA,0,Burkina Faso,BFA,0,Burkina Faso,Burkina Faso,BFA,Burkina Faso,,B.F.,BF,Burkina Faso,2,1,5,11,BFA,854,BFA,BFA,1927539.664,1.89867E+11,-1.487751591,12.34340382
30,1,Admin-0 country,6,Burundi,BDI,0,2,Sovereign country,Burundi,BDI,0,Burundi,BDI,0,Burundi,BDI,0,Burundi,Burundi,BDI,Burundi,,Bur.,BI,Republic of Burundi,2,2,5,8,BDI,108,BDI,BDI,571259.1783,18136031767,29.97472214,-3.258577172
31,1,Admin-0 country,4,Cabo Verde,CPV,0,2,Sovereign country,Cabo Verde,CPV,0,Cabo Verde,CPV,0,Cabo Verde,CPV,0,Cabo Verde,Republic of Cabo Verde,CPV,Cabo Verde,,C.Vd.,CV,Republic of Cabo Verde,1,1,4,11,CPV,132,CPV,CPV,433878.7303,2932353535,-22.80294165,16.10299603
32,1,Admin-0 country,3,Cambodia,KHM,0,2,Sovereign country,Cambodia,KHM,0,Cambodia,KHM,0,Cambodia,KHM,0,Cambodia,Cambodia,KHM,Cambodia,,Camb.,KH,Kingdom of Cambodia,6,3,6,5,KHM,116,KHM,KHM,1299620.425,1.07192E+11,105.0381503,12.76243302
33,1,Admin-0 country,3,Cameroon,CMR,0,2,Sovereign country,Cameroon,CMR,0,Cameroon,CMR,0,Cameroon,CMR,0,Cameroon,Cameroon,CMR,Cameroon,,Cam.,CM,Republic of Cameroon,1,4,1,3,CMR,120,CMR,CMR,3047204.875,2.95127E+11,12.71072447,5.805931794
34,1,Admin-0 country,2,Canada,CAN,0,2,Sovereign country,Canada,CAN,0,Canada,CAN,0,Canada,CAN,0,Canada,Canada,CAN,Canada,,Can.,CA,Canada,6,6,2,2,CAN,124,CAN,CAN,82170871.65,1.74143E+13,-101.7950942,57.86012722
35,1,Admin-0 country,4,Central African Republic,CAF,0,2,Sovereign country,Central African Republic,CAF,0,Central African Republic,CAF,0,Central African Republic,CAF,0,Central African Rep.,Central African Republic,CAF,Central African Rep.,,C.A.R.,CF,Central African Republic,5,6,6,9,CAF,140,CAF,CAF,3101358.02,3.78261E+11,20.4549389,6.572300781
36,1,Admin-0 country,3,Chad,TCD,0,2,Sovereign country,Chad,TCD,0,Chad,TCD,0,Chad,TCD,0,Chad,Chad,TCD,Chad,,Chad,TD,Republic of Chad,6,1,8,6,TCD,148,TCD,TCD,4197769.944,8.22906E+11,18.80375785,15.44056652
37,1,Admin-0 country,2,Chile,CHL,0,2,Sovereign country,Chile,CHL,0,Chile,CHL,0,Chile,CHL,0,Chile,Chile,CHL,Chile,,Chile,CL,Republic of Chile,5,1,5,9,CHL,152,CHL,CHL,11369210.18,7.97114E+11,-71.18121744,-35.51248983
38,1,Admin-0 country,2,China,CH1,1,2,Country,China,CHN,0,China,CHN,0,China,CHN,0,China,China,CHN,China,,China,CN,People's Republic of China,4,4,4,3,CHN,156,CHN,CHN,18208189.71,7.91559E+12,103.7036602,36.54364517
39,1,Admin-0 country,2,Colombia,COL,0,2,Sovereign country,Colombia,COL,0,Colombia,COL,0,Colombia,COL,0,Colombia,Colombia,COL,Colombia,,Col.,CO,Republic of Colombia,2,1,3,1,COL,170,COL,COL,4562784.38,7.00401E+11,-73.11428735,4.058167957
40,1,Admin-0 country,6,Comoros,COM,0,2,Sovereign country,Comoros,COM,0,Comoros,COM,0,Comoros,COM,0,Comoros,Comoros,COM,Comoros,,Com.,KM,Union of the Comoros,2,1,4,10,COM,174,COM,COM,297751.3968,2287050948,43.32168965,-11.64283297
41,1,Admin-0 country,4,Republic of the Congo,COG,0,2,Sovereign country,Republic of the Congo,COG,0,Republic of the Congo,COG,0,Republic of the Congo,COG,0,Congo,Republic of the Congo,COG,Republic of the Congo,,Rep. Congo,CG,Republic of the Congo,2,1,3,10,COG,178,COG,COG,2683230.435,2.15557E+11,15.18480547,-0.961159939
42,1,Admin-0 country,5,Costa Rica,CRI,0,2,Sovereign country,Costa Rica,CRI,0,Costa Rica,CRI,0,Costa Rica,CRI,0,Costa Rica,Costa Rica,CRI,Costa Rica,,C.R.,CR,Republic of Costa Rica,3,2,4,2,CRI,188,CRI,CRI,837788.2425,38286518574,-84.17206504,9.83797591
43,1,Admin-0 country,3,Ivory Coast,CIV,0,2,Sovereign country,Ivory Coast,CIV,0,Ivory Coast,CIV,0,Ivory Coast,CIV,0,Côte d'Ivoire,Côte d'Ivoire,CIV,Côte d'Ivoire,,I.C.,CI,Republic of Ivory Coast,4,6,3,3,CIV,384,CIV,CIV,1762342.928,1.8405E+11,-5.520992354,7.480755747
44,1,Admin-0 country,6,Croatia,HRV,0,2,Sovereign country,Croatia,HRV,0,Croatia,HRV,0,Croatia,HRV,0,Croatia,Croatia,HRV,Croatia,,Cro.,HR,Republic of Croatia,5,4,5,1,HRV,191,HRV,HRV,1916509.113,51691978966,16.44177105,45.08314967
45,1,Admin-0 country,3,Cuba,CUB,0,2,Sovereign country,Cuba,CUB,0,Cuba,CUB,0,Cuba,CUB,0,Cuba,Cuba,CUB,Cuba,,Cuba,CU,Republic of Cuba,3,5,3,4,CUB,192,CUB,CUB,2273726.597,73264035416,-79.17442926,21.65007764
46,1,Admin-0 country,5,Cyprus,CYP,0,2,Sovereign country,Cyprus,CYP,0,Cyprus,CYP,0,Cyprus,CYP,0,Cyprus,Cyprus,CYP,Cyprus,,Cyp.,CY,Republic of Cyprus,1,2,3,7,CYP,196,CYP,CYP,326303.7186,4885447442,32.97794792,34.90886833
47,1,Admin-0 country,5,Czechia,CZE,0,2,Sovereign country,Czechia,CZE,0,Czechia,CZE,0,Czechia,CZE,0,Czechia,Czech Republic,CZE,Czechia,,Cz.,CZ,Czech Republic,1,1,2,6,CZE,203,CZE,CZE,1243594.667,83970985721,15.33772334,49.67815682
48,1,Admin-0 country,2,Democratic Republic of the Congo,COD,0,2,Sovereign country,Democratic Republic of the Congo,COD,0,Democratic Republic of the Congo,COD,0,Democratic Republic of the Congo,COD,0,Dem. Rep. Congo,Democratic Republic of the Congo,COD,Democratic Republic of the Congo,,D.R.C.,DRC,Democratic Republic of the Congo,4,4,4,7,COD,180,COD,COD,6439811.388,1.44021E+12,23.71254731,-2.92513666
49,1,Admin-0 country,4,Denmark,DN1,1,2,Country,Denmark,DNK,0,Denmark,DNK,0,Denmark,DNK,0,Denmark,Denmark,DNK,Denmark,,Den.,DK,Kingdom of Denmark,4,1,3,12,DNK,208,DNK,DNK,2064194.64,64734994495,9.320307877,56.22310885
50,1,Admin-0 country,5,Djibouti,DJI,0,2,Sovereign country,Djibouti,DJI,0,Djibouti,DJI,0,Djibouti,DJI,0,Djibouti,Djibouti,DJI,Djibouti,,Dji.,DJ,Republic of Djibouti,1,2,4,8,DJI,262,DJI,DJI,614544.325,13882326947,42.47730132,11.4996678
51,1,Admin-0 country,6,Dominica,DMA,0,2,Sovereign country,Dominica,DMA,0,Dominica,DMA,0,Dominica,DMA,0,Dominica,Dominica,DMA,Dominica,,D'inca,DM,Commonwealth of Dominica,4,5,2,12,DMA,212,DMA,DMA,115156.7042,548223685,-61.37322512,15.43293892
52,1,Admin-0 country,5,Dominican Republic,DOM,0,2,Sovereign country,Dominican Republic,DOM,0,Dominican Republic,DOM,0,Dominican Republic,DOM,0,Dominican Rep.,Dominican Republic,DOM,Dominican Rep.,,Dom. Rep.,DO,Dominican Republic,5,2,5,7,DOM,214,DOM,DOM,853647.4804,30576950995,-70.37171117,18.95898086
53,1,Admin-0 country,3,Ecuador,ECU,0,2,Sovereign country,Ecuador,ECU,0,Ecuador,ECU,0,Ecuador,ECU,0,Ecuador,Ecuador,ECU,Ecuador,,Ecu.,EC,Republic of Ecuador,1,5,2,12,ECU,218,ECU,ECU,2093995.34,1.62166E+11,-78.2873516,-1.562112703
54,1,Admin-0 country,2,Egypt,EGY,0,2,Sovereign country,Egypt,EGY,0,Egypt,EGY,0,Egypt,EGY,0,Egypt,Egypt,EGY,Egypt,,Egypt,EG,Arab Republic of Egypt,4,6,7,2,EGY,818,EGY,EGY,4301220.012,7.20166E+11,29.76985234,26.54490655
55,1,Admin-0 country,6,El Salvador,SLV,0,2,Sovereign country,El Salvador,SLV,0,El Salvador,SLV,0,El Salvador,SLV,0,El Salvador,El Salvador,SLV,El Salvador,,El. S.,SV,Republic of El Salvador,1,4,6,8,SLV,222,SLV,SLV,537834.8248,16169779468,-88.81054704,13.76126332
56,1,Admin-0 country,4,Equatorial Guinea,GNQ,0,2,Sovereign country,Equatorial Guinea,GNQ,0,Equatorial Guinea,GNQ,0,Equatorial Guinea,GNQ,0,Eq. Guinea,Equatorial Guinea,GNQ,Eq. Guinea,,Eq. G.,GQ,Republic of Equatorial Guinea,4,1,4,8,GNQ,226,GNQ,GNQ,735004.1959,19531892144,10.41164519,1.543185409
57,1,Admin-0 country,4,Eritrea,ERI,0,2,Sovereign country,Eritrea,ERI,0,Eritrea,ERI,0,Eritrea,ERI,0,Eritrea,Eritrea,ERI,Eritrea,,Erit.,ER,State of Eritrea,3,1,2,12,ERI,232,ERI,ERI,1763372.062,85947520292,39.09291479,15.24301807
58,1,Admin-0 country,6,Estonia,EST,0,2,Sovereign country,Estonia,EST,0,Estonia,EST,0,Estonia,EST,0,Estonia,Estonia,EST,Estonia,,Est.,EST,Republic of Estonia,3,2,1,10,EST,233,EST,EST,1544292.686,66914056314,25.90585797,58.76314872
59,1,Admin-0 country,2,Ethiopia,ETH,0,2,Sovereign country,Ethiopia,ETH,0,Ethiopia,ETH,0,Ethiopia,ETH,0,Ethiopia,Ethiopia,ETH,Ethiopia,,Eth.,ET,Federal Democratic Republic of Ethiopia,4,4,1,13,ETH,231,ETH,ETH,3430877.56,6.87253E+11,39.57972798,8.571277661
60,3,Admin-0 country,6,Denmark,DN1,1,2,Dependency,Faroe Islands,FRO,0,Faroe Islands,FRO,0,Faroe Islands,FRO,0,Faeroe Is.,Faeroe Islands,FRO,Faeroe Islands,,Faeroe Is.,FO,Føroyar Is. (Faeroe Is.),4,1,3,12,FRO,234,FRO,FRO,150886.562,1006491428,-6.860300763,62.13767663
61,1,Admin-0 country,5,United Kingdom,GB1,1,2,Dependency,Falkland Islands,FLK,0,Falkland Islands,FLK,0,Falkland Islands,FLK,1,Falkland Is.,Falkland Islands,B12,Falkland Is.,,Flk. Is.,FK,Falkland Islands,6,6,6,3,FLK,238,FLK,FLK,819903.6898,13577396101,-58.80171379,-51.8054185
62,1,Admin-0 country,6,Fiji,FJI,0,2,Sovereign country,Fiji,FJI,0,Fiji,FJI,0,Fiji,FJI,0,Fiji,Fiji,FJI,Fiji,,Fiji,FJ,Republic of Fiji,5,1,2,2,FJI,242,FJI,FJI,655254.7395,11870158422,177.9535929,-17.83212483
63,1,Admin-0 country,3,Finland,FI1,1,2,Country,Finland,FIN,0,Finland,FIN,0,Finland,FIN,0,Finland,Finland,FIN,Finland,,Fin.,FIN,Republic of Finland,4,1,4,6,FIN,246,FIN,FIN,4373876.729,6.52038E+11,26.10807049,64.44298445
64,3,Admin-0 country,6,France,FR1,1,2,Dependency,French Southern and Antarctic Lands,ATF,0,French Southern and Antarctic Lands,ATF,0,French Southern and Antarctic Lands,ATF,0,Fr. S. Antarctic Lands,French Southern and Antarctic Lands,ATF,Fr. S. and Antarctic Lands,,Fr. S.A.L.,TF,Territory of the French Southern and Antarctic Lands,7,5,9,11,ATF,-99,ATF,ATF,504524.167,15779041405,69.62470172,-49.28033693
65,1,Admin-0 country,2,France,FR1,1,2,Country,France,FRA,0,France,FRA,0,France,FRA,0,France,France,FRA,France,,Fr.,F,French Republic,7,5,9,11,FRA,250,FRA,FRA,5856458.174,6.35573E+11,2.465027154,46.60355131
66,1,Admin-0 country,4,Gabon,GAB,0,2,Sovereign country,Gabon,GAB,0,Gabon,GAB,0,Gabon,GAB,0,Gabon,Gabon,GAB,Gabon,,Gabon,GA,Gabonese Republic,6,2,5,5,GAB,266,GAB,GAB,1782126.576,1.5608E+11,11.76967863,-0.566530738
67,1,Admin-0 country,6,Gambia,GMB,0,2,Sovereign country,Gambia,GMB,0,Gambia,GMB,0,Gambia,GMB,0,Gambia,The Gambia,GMB,Gambia,,Gambia,GM,Republic of the Gambia,1,4,1,8,GMB,270,GMB,GMB,571022.8457,13163365420,-15.23482596,13.38447595
68,1,Admin-0 country,5,Georgia,GEO,0,2,Sovereign country,Georgia,GEO,0,Georgia,GEO,0,Georgia,GEO,0,Georgia,Georgia,GEO,Georgia,,Geo.,GE,Georgia,5,1,3,2,GEO,268,GEO,GEO,1367703.148,66948801937,43.52261657,42.18918889
69,1,Admin-0 country,2,Germany,DEU,0,2,Sovereign country,Germany,DEU,0,Germany,DEU,0,Germany,DEU,0,Germany,Germany,DEU,Germany,,Ger.,D,Federal Republic of Germany,2,5,5,1,DEU,276,DEU,DEU,3328144.888,4.30351E+11,10.43526694,51.12347145
70,1,Admin-0 country,3,Ghana,GHA,0,2,Sovereign country,Ghana,GHA,0,Ghana,GHA,0,Ghana,GHA,0,Ghana,Ghana,GHA,Ghana,,Ghana,GH,Republic of Ghana,5,3,1,4,GHA,288,GHA,GHA,1601527.105,1.42501E+11,-1.400534259,7.926648167
71,1,Admin-0 country,3,Greece,GRC,0,2,Sovereign country,Greece,GRC,0,Greece,GRC,0,Greece,GRC,0,Greece,Greece,GRC,Greece,,Greece,GR,Hellenic Republic,2,2,2,9,GRC,300,GRC,GRC,4324290.455,1.19285E+11,22.67136079,39.48334965
72,1,Admin-0 country,3,Denmark,DN1,1,2,Country,Greenland,GRL,0,Greenland,GRL,0,Greenland,GRL,0,Greenland,Greenland,GRL,Greenland,,Grlnd.,GL,Greenland,4,1,3,12,GRL,304,GRL,GRL,18817042.12,7.96812E+12,-41.45795386,74.80065851
73,1,Admin-0 country,6,Grenada,GRD,0,2,Sovereign country,Grenada,GRD,0,Grenada,GRD,0,Grenada,GRD,0,Grenada,Grenada,GRD,Grenada,,Gren.,GD,Grenada,2,4,3,6,GRD,308,GRD,GRD,81019.11329,307145271,-61.67574203,12.10678687
74,1,Admin-0 country,3,Guatemala,GTM,0,2,Sovereign country,Guatemala,GTM,0,Guatemala,GTM,0,Guatemala,GTM,0,Guatemala,Guatemala,GTM,Guatemala,,Guat.,GT,Republic of Guatemala,3,3,3,6,GTM,320,GTM,GTM,1354041.211,71409473040,-90.40360949,15.66341517
75,1,Admin-0 country,3,Guinea,GIN,0,2,Sovereign country,Guinea,GIN,0,Guinea,GIN,0,Guinea,GIN,0,Guinea,Guinea,GIN,Guinea,,Gin.,GN,Republic of Guinea,6,3,7,2,GIN,324,GIN,GIN,2196284.953,1.66557E+11,-11.12861224,10.54154474
76,1,Admin-0 country,4,Guyana,GUY,0,2,Sovereign country,Guyana,GUY,0,Guyana,GUY,0,Guyana,GUY,0,Guyana,Guyana,GUY,Guyana,,Guy.,GY,Co-operative Republic of Guyana,3,1,4,8,GUY,328,GUY,GUY,1800186.691,1.3832E+11,-58.98271591,4.73937511
77,1,Admin-0 country,5,Haiti,HTI,0,2,Sovereign country,Haiti,HTI,0,Haiti,HTI,0,Haiti,HTI,0,Haiti,Haiti,HTI,Haiti,,Haiti,HT,Republic of Haiti,2,1,7,2,HTI,332,HTI,HTI,1041911.545,24214825248,-72.6143519,18.85691112
78,1,Admin-0 country,5,Honduras,HND,0,2,Sovereign country,Honduras,HND,0,Honduras,HND,0,Honduras,HND,0,Honduras,Honduras,HND,Honduras,,Hond.,HN,Republic of Honduras,2,5,2,5,HND,340,HND,HND,1321564.138,79449851831,-86.45662078,14.75724689
79,1,Admin-0 country,5,Hungary,HUN,0,2,Sovereign country,Hungary,HUN,0,Hungary,HUN,0,Hungary,HUN,0,Hungary,Hungary,HUN,Hungary,,Hun.,HU,Republic of Hungary,4,6,1,5,HUN,348,HUN,HUN,1353616.434,99023187534,19.37300952,47.04560459
80,1,Admin-0 country,3,Iceland,ISL,0,2,Sovereign country,Iceland,ISL,0,Iceland,ISL,0,Iceland,ISL,0,Iceland,Iceland,ISL,Iceland,,Iceland,IS,Republic of Iceland,1,4,4,9,ISL,352,ISL,ISL,2760819.245,2.05201E+11,-18.70702981,65.03027787
81,1,Admin-0 country,2,India,IND,0,2,Sovereign country,India,IND,0,India,IND,0,India,IND,0,India,India,IND,India,,India,IND,Republic of India,1,3,2,2,IND,356,IND,IND,11260411.75,2.16376E+12,79.70545932,22.86246829
82,1,Admin-0 country,2,Indonesia,IDN,0,2,Sovereign country,Indonesia,IDN,0,Indonesia,IDN,0,Indonesia,IDN,0,Indonesia,Indonesia,IDN,Indonesia,,Indo.,INDO,Republic of Indonesia,6,6,6,11,IDN,360,IDN,IDN,22586993.69,1.15311E+12,101.5761122,-0.396654654
83,1,Admin-0 country,2,Iran,IRN,0,2,Sovereign country,Iran,IRN,0,Iran,IRN,0,Iran,IRN,0,Iran,Iran,IRN,Iran,,Iran,IRN,Islamic Republic of Iran,4,3,4,13,IRN,364,IRN,IRN,5613775.864,1.26794E+12,54.3539373,32.53763371
84,1,Admin-0 country,3,Iraq,IRQ,0,2,Sovereign country,Iraq,IRQ,0,Iraq,IRQ,0,Iraq,IRQ,0,Iraq,Iraq,IRQ,Iraq,,Iraq,IRQ,Republic of Iraq,1,4,3,1,IRQ,368,IRQ,IRQ,2668725.464,3.53276E+11,43.80120757,33.04254552
85,1,Admin-0 country,3,Ireland,IRL,0,2,Sovereign country,Ireland,IRL,0,Ireland,IRL,0,Ireland,IRL,0,Ireland,Ireland,IRL,Ireland,,Ire.,IRL,Ireland,2,3,2,2,IRL,372,IRL,IRL,1295213.864,86252692667,-8.34285876,52.97538792
86,3,Admin-0 country,6,United Kingdom,GB1,1,2,Country,Isle of Man,IMN,0,Isle of Man,IMN,0,Isle of Man,IMN,0,Isle of Man,Isle of Man,IMN,Isle of Man,,IoMan,IM,,6,6,6,3,IMN,833,IMN,IMN,144265.8522,1071910745,-4.514667509,54.199257
87,1,Admin-0 country,4,Israel,IS1,1,2,Country,Israel,ISR,0,Israel,ISR,0,Israel,ISR,0,Israel,Israel,ISR,Israel,,Isr.,IS,State of Israel,3,2,5,9,ISR,376,ISR,ISR,1030854.156,16746618502,35.07743854,31.74165825
88,1,Admin-0 country,2,Italy,ITA,0,2,Sovereign country,Italy,ITA,0,Italy,ITA,0,Italy,ITA,0,Italy,Italy,ITA,Italy,,Italy,I,Italian Republic,6,7,8,7,ITA,380,ITA,ITA,5091755.865,2.98475E+11,12.2068119,43.49989686
89,1,Admin-0 country,4,Jamaica,JAM,0,2,Sovereign country,Jamaica,JAM,0,Jamaica,JAM,0,Jamaica,JAM,0,Jamaica,Jamaica,JAM,Jamaica,,Jam.,J,Jamaica,1,2,4,10,JAM,388,JAM,JAM,378620.7111,7323043320,-77.25105884,18.10078127
90,1,Admin-0 country,2,Japan,JPN,0,2,Sovereign country,Japan,JPN,0,Japan,JPN,0,Japan,JPN,0,Japan,Japan,JPN,Japan,,Japan,J,Japan,5,3,5,4,JPN,392,JPN,JPN,6055991.008,3.27554E+11,137.9906513,36.73698088
91,1,Admin-0 country,4,Jordan,JOR,0,2,Sovereign country,Jordan,JOR,0,Jordan,JOR,0,Jordan,JOR,0,Jordan,Jordan,JOR,Jordan,,Jord.,J,Hashemite Kingdom of Jordan,5,3,4,4,JOR,400,JOR,JOR,1390511.298,69699231454,36.71663918,31.22559675
92,1,Admin-0 country,3,Kazakhstan,KAZ,0,2,Sovereign country,Kazakhstan,KAZ,0,Kazakhstan,KAZ,0,Kazakhstan,KAZ,0,Kazakhstan,Kazakhstan,KAZ,Kazakhstan,,Kaz.,KZ,Republic of Kazakhstan,6,1,6,1,KAZ,398,KAZ,KAZ,9910911.155,2.92523E+12,67.12379401,48.19624193
93,1,Admin-0 country,2,Kenya,KEN,0,2,Sovereign country,Kenya,KEN,0,Kenya,KEN,0,Kenya,KEN,0,Kenya,Kenya,KEN,Kenya,,Ken.,KE,Republic of Kenya,5,2,7,3,KEN,404,KEN,KEN,2770999.507,3.79566E+11,37.77640976,0.458030867
94,1,Admin-0 country,6,Kosovo,KOS,0,2,Sovereign country,Kosovo,KOS,0,Kosovo,KOS,0,Kosovo,KOS,0,Kosovo,Kosovo,KOS,Kosovo,,Kos.,KO,Republic of Kosovo,2,2,3,11,KOS,-99,KOS,KOS,417862.9225,11469400241,20.9265198,42.53772759
95,1,Admin-0 country,6,Kuwait,KWT,0,2,Sovereign country,Kuwait,KWT,0,Kuwait,KWT,0,Kuwait,KWT,0,Kuwait,Kuwait,KWT,Kuwait,,Kwt.,KW,State of Kuwait,2,2,2,2,KWT,414,KWT,KWT,598498.84,14082420055,47.59176054,29.34396296
96,1,Admin-0 country,4,Kyrgyzstan,KGZ,0,2,Sovereign country,Kyrgyzstan,KGZ,0,Kyrgyzstan,KGZ,0,Kyrgyzstan,KGZ,0,Kyrgyzstan,Kyrgyzstan,KGZ,Kyrgyzstan,,Kgz.,KG,Kyrgyz Republic,5,7,7,6,KGZ,417,KGZ,KGZ,2429625.65,1.93193E+11,74.5499453,41.54386404
97,1,Admin-0 country,4,Laos,LAO,0,2,Sovereign country,Laos,LAO,0,Laos,LAO,0,Laos,LAO,0,Laos,Lao PDR,LAO,Laos,,Laos,LA,Lao People's Democratic Republic,1,1,1,9,LAO,418,LAO,LAO,2670369.815,1.47867E+11,103.7370794,18.48415913
98,1,Admin-0 country,5,Latvia,LVA,0,2,Sovereign country,Latvia,LVA,0,Latvia,LVA,0,Latvia,LVA,0,Latvia,Latvia,LVA,Latvia,,Lat.,LV,Republic of Latvia,4,7,6,13,LVA,428,LVA,LVA,1664831.764,1.00749E+11,24.79671092,56.87461746
99,1,Admin-0 country,5,Lebanon,LBN,0,2,Sovereign country,Lebanon,LBN,0,Lebanon,LBN,0,Lebanon,LBN,0,Lebanon,Lebanon,LBN,Lebanon,,Leb.,LB,Lebanese Republic,4,4,4,12,LBN,422,LBN,LBN,450414.6903,7445866434,35.8976367,34.03154303
100,1,Admin-0 country,6,Lesotho,LSO,0,2,Sovereign country,Lesotho,LSO,0,Lesotho,LSO,0,Lesotho,LSO,0,Lesotho,Lesotho,LSO,Lesotho,,Les.,LS,Kingdom of Lesotho,1,5,2,8,LSO,426,LSO,LSO,595684.9912,21200352670,28.21371583,-29.5767878
101,1,Admin-0 country,4,Liberia,LBR,0,2,Sovereign country,Liberia,LBR,0,Liberia,LBR,0,Liberia,LBR,0,Liberia,Liberia,LBR,Liberia,,Liberia,LR,Republic of Liberia,2,3,4,9,LBR,430,LBR,LBR,1044459.644,54160300663,-9.29312565,6.513751582
102,1,Admin-0 country,3,Libya,LBY,0,2,Sovereign country,Libya,LBY,0,Libya,LBY,0,Libya,LBY,0,Libya,Libya,LBY,Libya,,Libya,LY,Libya,1,2,2,11,LBY,434,LBY,LBY,4870602.937,1.16463E+12,17.90365986,27.15449127
103,1,Admin-0 country,5,Lithuania,LTU,0,2,Sovereign country,Lithuania,LTU,0,Lithuania,LTU,0,Lithuania,LTU,0,Lithuania,Lithuania,LTU,Lithuania,,Lith.,LT,Republic of Lithuania,6,3,3,9,LTU,440,LTU,LTU,1186253.267,84020383604,23.95517442,55.27937614
104,1,Admin-0 country,6,Luxembourg,LUX,0,2,Sovereign country,Luxembourg,LUX,0,Luxembourg,LUX,0,Luxembourg,LUX,0,Luxembourg,Luxembourg,LUX,Luxembourg,,Lux.,L,Grand Duchy of Luxembourg,1,7,3,7,LUX,442,LUX,LUX,217405.9535,2186653104,6.133823629,49.82918395
105,1,Admin-0 country,6,Macedonia,MKD,0,2,Sovereign country,Macedonia,MKD,0,Macedonia,MKD,0,Macedonia,MKD,0,Macedonia,Macedonia,MKD,Macedonia,,Mkd.,MK,Former Yugoslav Republic of Macedonia,5,3,7,3,MKD,807,MKD,MKD,573968.2679,21416994693,21.69424351,41.57677772
106,1,Admin-0 country,3,Madagascar,MDG,0,2,Sovereign country,Madagascar,MDG,0,Madagascar,MDG,0,Madagascar,MDG,0,Madagascar,Madagascar,MDG,Madagascar,,Mad.,MG,Republic of Madagascar,6,5,2,3,MDG,450,MDG,MDG,3085143.673,3.98071E+11,46.79383604,-19.40144015
107,1,Admin-0 country,6,Malawi,MWI,0,2,Sovereign country,Malawi,MWI,0,Malawi,MWI,0,Malawi,MWI,0,Malawi,Malawi,MWI,Malawi,,Mal.,MW,Republic of Malawi,1,3,4,5,MWI,454,MWI,MWI,1686897.792,86394190077,34.27353132,-13.02995234
109,1,Admin-0 country,3,Mali,MLI,0,2,Sovereign country,Mali,MLI,0,Mali,MLI,0,Mali,MLI,0,Mali,Mali,MLI,Mali,,Mali,ML,Republic of Mali,1,4,1,7,MLI,466,MLI,MLI,4840724.708,8.1225E+11,-3.468142045,17.2784416
110,3,Admin-0 country,5,Malta,MLT,0,2,Sovereign country,Malta,MLT,0,Malta,MLT,0,Malta,MLT,0,Malta,Malta,MLT,Malta,,Malta,M,Republic of Malta,1,4,1,8,MLT,470,MLT,MLT,92137.82991,504033266.7,14.49321089,35.90219872
111,1,Admin-0 country,3,Mauritania,MRT,0,2,Sovereign country,Mauritania,MRT,0,Mauritania,MRT,0,Mauritania,MRT,0,Mauritania,Mauritania,MRT,Mauritania,,Mrt.,MR,Islamic Republic of Mauritania,3,3,2,1,MRT,478,MRT,MRT,3933355.394,7.04327E+11,-10.47333207,20.153505
112,1,Admin-0 country,5,Mauritius,MUS,0,2,Sovereign country,Mauritius,MUS,0,Mauritius,MUS,0,Mauritius,MUS,0,Mauritius,Mauritius,MUS,Mauritius,,Mus.,MU,Republic of Mauritius,1,3,5,7,MUS,480,MUS,MUS,171110.0392,1302085936,57.56515586,-20.32157153
113,1,Admin-0 country,2,Mexico,MEX,0,2,Sovereign country,Mexico,MEX,0,Mexico,MEX,0,Mexico,MEX,0,Mexico,Mexico,MEX,Mexico,,Mex.,MX,United Mexican States,6,1,7,3,MEX,484,MEX,MEX,9975350.968,1.37644E+12,-102.5379193,23.9557003
114,1,Admin-0 country,6,Moldova,MDA,0,2,Sovereign country,Moldova,MDA,0,Moldova,MDA,0,Moldova,MDA,0,Moldova,Moldova,MDA,Moldova,,Mda.,MD,Republic of Moldova,3,5,4,12,MDA,498,MDA,MDA,1007377.916,34904157842,28.50631078,47.27969496
115,1,Admin-0 country,3,Mongolia,MNG,0,2,Sovereign country,Mongolia,MNG,0,Mongolia,MNG,0,Mongolia,MNG,0,Mongolia,Mongolia,MNG,Mongolia,,Mong.,MN,Mongolia,3,5,5,6,MNG,496,MNG,MNG,6425672.154,1.65034E+12,103.3165121,46.75990749
116,1,Admin-0 country,6,Montenegro,MNE,0,2,Sovereign country,Montenegro,MNE,0,Montenegro,MNE,0,Montenegro,MNE,0,Montenegro,Montenegro,MNE,Montenegro,,Mont.,ME,Montenegro,4,1,4,5,MNE,499,MNE,MNE,521902.1778,14661271013,19.28015976,42.76647994
117,1,Admin-0 country,3,Morocco,MAR,0,2,Sovereign country,Morocco,MAR,0,Morocco,MAR,0,Morocco,MAR,0,Morocco,Morocco,MAR,Morocco,,Mor.,MA,Kingdom of Morocco,2,2,3,9,MAR,504,MAR,MAR,4310182.251,4.34629E+11,-8.326398281,29.93379927
118,1,Admin-0 country,3,Mozambique,MOZ,0,2,Sovereign country,Mozambique,MOZ,0,Mozambique,MOZ,0,Mozambique,MOZ,0,Mozambique,Mozambique,MOZ,Mozambique,,Moz.,MZ,Republic of Mozambique,4,2,1,4,MOZ,508,MOZ,MOZ,4967508.049,5.11621E+11,35.49537729,-17.39750541
119,1,Admin-0 country,3,Myanmar,MMR,0,2,Sovereign country,Myanmar,MMR,0,Myanmar,MMR,0,Myanmar,MMR,0,Myanmar,Myanmar,MMR,Myanmar,,Myan.,MM,Republic of the Union of Myanmar,2,2,5,13,MMR,104,MMR,MMR,4626470.554,4.46966E+11,96.44786757,20.972517
120,1,Admin-0 country,6,Northern Cyprus,CYN,0,2,Sovereign country,Northern Cyprus,CYN,0,Northern Cyprus,CYN,0,Northern Cyprus,CYN,1,N. Cyprus,Northern Cyprus,B20,N. Cyprus,,N. Cy.,CN,Turkish Republic of Northern Cyprus,3,1,4,8,CYP,-99,CYP,CYP,390570.3298,3696418961,33.52207643,35.25882264
121,1,Admin-0 country,3,Namibia,NAM,0,2,Sovereign country,Namibia,NAM,0,Namibia,NAM,0,Namibia,NAM,0,Namibia,Namibia,NAM,Namibia,,Nam.,NA,Republic of Namibia,4,1,1,7,NAM,516,NAM,NAM,3989865.963,5.59435E+11,17.22169382,-22.09540624
122,1,Admin-0 country,3,Nepal,NPL,0,2,Sovereign country,Nepal,NPL,0,Nepal,NPL,0,Nepal,NPL,0,Nepal,Nepal,NPL,Nepal,,Nepal,NP,Nepal,2,2,3,12,NPL,524,NPL,NPL,1632432.943,97775236250,83.90871848,28.21971476
123,1,Admin-0 country,5,Netherlands,NL1,1,2,Country,Netherlands,NLD,0,Netherlands,NLD,0,Netherlands,NLD,0,Netherlands,Netherlands,NLD,Netherlands,,Neth.,NL,Kingdom of the Netherlands,4,2,2,9,NLD,528,NLD,NLD,1010098.437,45231473190,5.643098083,52.25758783
124,1,Admin-0 country,3,France,FR1,1,2,Dependency,New Caledonia,NCL,0,New Caledonia,NCL,0,New Caledonia,NCL,0,New Caledonia,New Caledonia,NCL,New Caledonia,,New C.,NC,New Caledonia,7,5,9,11,NCL,540,NCL,NCL,675250.5063,10899719390,165.6205878,-21.33621566
125,1,Admin-0 country,2,New Zealand,NZ1,1,2,Country,New Zealand,NZL,0,New Zealand,NZL,0,New Zealand,NZL,0,New Zealand,New Zealand,NZL,New Zealand,,N.Z.,NZ,New Zealand,3,3,4,4,NZL,554,NZL,NZL,4387704.127,2.54058E+11,170.3487466,-44.03917439
126,1,Admin-0 country,5,Nicaragua,NIC,0,2,Sovereign country,Nicaragua,NIC,0,Nicaragua,NIC,0,Nicaragua,NIC,0,Nicaragua,Nicaragua,NIC,Nicaragua,,Nic.,NI,Republic of Nicaragua,1,4,1,9,NIC,558,NIC,NIC,1195192.682,80966468767,-84.90204865,12.6980656
127,1,Admin-0 country,3,Niger,NER,0,2,Sovereign country,Niger,NER,0,Niger,NER,0,Niger,NER,0,Niger,Niger,NER,Niger,,Niger,NE,Republic of Niger,4,5,3,13,NER,562,NER,NER,3917792.729,7.66736E+11,9.702619241,17.42191915
128,1,Admin-0 country,2,Nigeria,NGA,0,2,Sovereign country,Nigeria,NGA,0,Nigeria,NGA,0,Nigeria,NGA,0,Nigeria,Nigeria,NGA,Nigeria,,Nigeria,NG,Federal Republic of Nigeria,3,2,5,2,NGA,566,NGA,NGA,3096145.801,5.57695E+11,7.945875081,9.645441564
129,1,Admin-0 country,3,North Korea,PRK,0,2,Sovereign country,North Korea,PRK,0,North Korea,PRK,0,North Korea,PRK,0,North Korea,Dem. Rep. Korea,PRK,Dem. Rep. Korea,,N.K.,KP,Democratic People's Republic of Korea,3,5,3,9,PRK,408,PRK,PRK,1830714.394,1.14325E+11,127.3101004,40.19820476
130,1,Admin-0 country,3,Norway,NOR,0,2,Sovereign country,Norway,NOR,0,Norway,NOR,0,Norway,NOR,0,Norway,Norway,NOR,Norway,,Nor.,N,Kingdom of Norway,5,3,8,12,NOR,-99,NOR,NOR,12064814.76,9.91969E+11,14.13662973,64.48022388
131,1,Admin-0 country,4,Oman,OMN,0,2,Sovereign country,Oman,OMN,0,Oman,OMN,0,Oman,OMN,0,Oman,Oman,OMN,Oman,,Oman,OM,Sultanate of Oman,1,4,1,6,OMN,512,OMN,OMN,2512991.283,2.24513E+11,56.20990349,20.76190687
132,1,Admin-0 country,2,Pakistan,PAK,0,2,Sovereign country,Pakistan,PAK,0,Pakistan,PAK,0,Pakistan,PAK,0,Pakistan,Pakistan,PAK,Pakistan,,Pak.,PK,Islamic Republic of Pakistan,2,2,3,11,PAK,586,PAK,PAK,4903219.297,6.62816E+11,69.337964,29.93166582
133,1,Admin-0 country,5,Israel,IS1,1,2,Disputed,Palestine,PSX,0,Palestine,PSX,0,Palestine,PSX,0,Palestine,Palestine,PSX,Palestine,,Pal.,PAL,West Bank and Gaza,3,2,5,8,PSE,275,PSE,PSX,399939.4931,3725359030,35.23409284,31.96069803
134,1,Admin-0 country,4,Panama,PAN,0,2,Sovereign country,Panama,PAN,0,Panama,PAN,0,Panama,PAN,0,Panama,Panama,PAN,Panama,,Pan.,PA,Republic of Panama,4,4,6,3,PAN,591,PAN,PAN,1464735.219,58326421814,-80.12870125,8.534220494
135,1,Admin-0 country,2,Papua New Guinea,PNG,0,2,Sovereign country,Papua New Guinea,PNG,0,Papua New Guinea,PNG,1,Papua New Guinea,PN1,0,Papua New Guinea,Papua New Guinea,PN1,Papua New Guinea,,P.N.G.,PG,Independent State of Papua New Guinea,4,2,3,1,PNG,598,PNG,PNG,4750673.554,2.9145E+11,144.3113889,-6.634496133
136,1,Admin-0 country,4,Paraguay,PRY,0,2,Sovereign country,Paraguay,PRY,0,Paraguay,PRY,0,Paraguay,PRY,0,Paraguay,Paraguay,PRY,Paraguay,,Para.,PY,Republic of Paraguay,6,3,6,2,PRY,600,PRY,PRY,2532121.54,2.58287E+11,-58.31545437,-23.09231819
137,1,Admin-0 country,2,Peru,PER,0,2,Sovereign country,Peru,PER,0,Peru,PER,0,Peru,PER,0,Peru,Peru,PER,Peru,,Peru,PE,Republic of Peru,4,4,4,11,PER,604,PER,PER,4952687.403,8.18173E+11,-74.53943027,-9.185793288
138,1,Admin-0 country,2,Philippines,PHL,0,2,Sovereign country,Philippines,PHL,0,Philippines,PHL,0,Philippines,PHL,0,Philippines,Philippines,PHL,Philippines,,Phil.,PH,Republic of the Philippines,3,2,2,8,PHL,608,PHL,PHL,7051376.644,1.85793E+11,121.5310072,15.92056913
139,1,Admin-0 country,3,Poland,POL,0,2,Sovereign country,Poland,POL,0,Poland,POL,0,Poland,POL,0,Poland,Poland,POL,Poland,,Pol.,PL,Republic of Poland,3,7,1,2,POL,616,POL,POL,2436405.579,3.95423E+11,19.47669362,52.06035056
140,1,Admin-0 country,2,Portugal,PRT,0,2,Sovereign country,Portugal,PRT,0,Portugal,PRT,1,Portugal,PR1,0,Portugal,Portugal,PR1,Portugal,,Port.,P,Portuguese Republic,1,7,1,4,PRT,620,PRT,PRT,1972387.293,90995843745,-7.888822114,39.67689832
141,1,Admin-0 country,5,United States of America,US1,1,2,Dependency,Puerto Rico,PRI,0,Puerto Rico,PRI,0,Puerto Rico,PRI,0,Puerto Rico,Puerto Rico,PRI,Puerto Rico,,P.R.,PR,Commonwealth of Puerto Rico,4,5,1,1,PRI,630,PRI,PRI,346219.3287,6216410282,-66.49980183,18.20722361
142,1,Admin-0 country,5,Qatar,QAT,0,2,Sovereign country,Qatar,QAT,0,Qatar,QAT,0,Qatar,QAT,0,Qatar,Qatar,QAT,Qatar,,Qatar,QA,State of Qatar,3,6,2,4,QAT,634,QAT,QAT,381255.8808,6601216925,51.20150412,25.38764246
143,1,Admin-0 country,3,Romania,ROU,0,2,Sovereign country,Romania,ROU,0,Romania,ROU,0,Romania,ROU,0,Romania,Romania,ROU,Romania,,Rom.,RO,Romania,1,4,3,13,ROU,642,ROU,ROU,2087871.549,2.40221E+11,25.08396361,45.84808056
145,1,Admin-0 country,3,Rwanda,RWA,0,2,Sovereign country,Rwanda,RWA,0,Rwanda,RWA,0,Rwanda,RWA,0,Rwanda,Rwanda,RWA,Rwanda,,Rwa.,RW,Republic of Rwanda,5,2,3,10,RWA,646,RWA,RWA,477654.3578,12940124445,29.90929868,-1.916088115
146,3,Admin-0 country,4,United Kingdom,GB1,1,2,Dependency,South Georgia and the Islands,SGS,0,South Georgia and the Islands,SGS,0,South Georgia and the Islands,SGS,0,S. Geo. and the Is.,South Georgia and the Islands,SGS,S. Geo. and the Is.,,S.G. & Is.,GS,South Georgia and the Islands,6,6,6,3,SGS,-99,SGS,SGS,427741.4377,5544365924,-36.86923818,-54.36839651
147,1,Admin-0 country,3,South Sudan,SDS,0,2,Sovereign country,South Sudan,SDS,0,South Sudan,SDS,0,South Sudan,SDS,0,S. Sudan,South Sudan,SDS,S. Sudan,,S. Sud.,SS,Republic of South Sudan,1,3,3,5,SSD,728,SSD,SDS,2778135.871,3.94457E+11,30.1497837,7.364918782
148,1,Admin-0 country,6,Saint Lucia,LCA,0,2,Sovereign country,Saint Lucia,LCA,0,Saint Lucia,LCA,0,Saint Lucia,LCA,0,Saint Lucia,Saint Lucia,LCA,Saint Lucia,,S.L.,LC,Saint Lucia,3,4,3,4,LCA,662,LCA,LCA,98389.18987,432497293.4,-60.95866492,13.90495647
149,1,Admin-0 country,6,Sao Tome and Principe,STP,0,2,Sovereign country,Sao Tome and Principe,STP,0,Sao Tome and Principe,STP,0,Sao Tome and Principe,STP,0,São Tomé and Principe,São Tomé and Principe,STP,Sao Tome and Principe,,S.T.P.,ST,Democratic Republic of São Tomé and Principe,1,6,1,7,STP,678,STP,STP,139321.389,922940914,6.590497174,0.217045548
150,1,Admin-0 country,2,Saudi Arabia,SAU,0,2,Sovereign country,Saudi Arabia,SAU,0,Saudi Arabia,SAU,0,Saudi Arabia,SAU,0,Saudi Arabia,Saudi Arabia,SAU,Saudi Arabia,,Saud.,SA,Kingdom of Saudi Arabia,6,1,6,7,SAU,682,SAU,SAU,5163355.082,1.35627E+12,44.59185702,24.05398832
151,1,Admin-0 country,3,Senegal,SEN,0,2,Sovereign country,Senegal,SEN,0,Senegal,SEN,0,Senegal,SEN,0,Senegal,Senegal,SEN,Senegal,,Sen.,SN,Republic of Senegal,2,6,5,5,SEN,686,SEN,SEN,1927576.442,1.23423E+11,-14.48551257,14.38508391
152,1,Admin-0 country,5,Republic of Serbia,SRB,0,2,Sovereign country,Republic of Serbia,SRB,0,Republic of Serbia,SRB,0,Republic of Serbia,SRB,0,Serbia,Serbia,SRB,Serbia,,Serb.,RS,Republic of Serbia,3,3,2,10,SRB,688,SRB,SRB,1262841.035,73445825441,20.79430002,44.20868656
153,1,Admin-0 country,6,Seychelles,SYC,0,2,Sovereign country,Seychelles,SYC,0,Seychelles,SYC,0,Seychelles,SYC,0,Seychelles,Seychelles,SYC,Seychelles,,Syc.,SC,Republic of Seychelles,5,8,3,1,SYC,690,SYC,SYC,81084.84113,287858998.5,55.48619246,-4.658055552
154,1,Admin-0 country,4,Sierra Leone,SLE,0,2,Sovereign country,Sierra Leone,SLE,0,Sierra Leone,SLE,0,Sierra Leone,SLE,0,Sierra Leone,Sierra Leone,SLE,Sierra Leone,,S.L.,SL,Republic of Sierra Leone,1,4,1,7,SLE,694,SLE,SLE,846960.6498,46043998898,-11.47530555,8.642962401
155,3,Admin-0 country,6,Singapore,SGP,0,2,Sovereign country,Singapore,SGP,0,Singapore,SGP,0,Singapore,SGP,0,Singapore,Singapore,SGP,Singapore,,Sing.,SG,Republic of Singapore,5,3,7,3,SGP,702,SGP,SGP,92108.85122,363533994.2,103.846458,1.265300739
156,1,Admin-0 country,6,Slovakia,SVK,0,2,Sovereign country,Slovakia,SVK,0,Slovakia,SVK,0,Slovakia,SVK,0,Slovakia,Slovakia,SVK,Slovakia,,Svk.,SK,Slovak Republic,2,4,4,9,SVK,703,SVK,SVK,1060928.944,56998542964,19.5190721,48.60108306
157,1,Admin-0 country,6,Slovenia,SVN,0,2,Sovereign country,Slovenia,SVN,0,Slovenia,SVN,0,Slovenia,SVN,0,Slovenia,Slovenia,SVN,Slovenia,,Slo.,SLO,Republic of Slovenia,2,3,2,12,SVN,705,SVN,SVN,637453.276,20849906590,14.73653486,46.08822198
158,1,Admin-0 country,3,Solomon Islands,SLB,0,2,Sovereign country,Solomon Islands,SLB,0,Solomon Islands,SLB,0,Solomon Islands,SLB,0,Solomon Is.,Solomon Islands,SLB,Solomon Is.,,S. Is.,SB,,1,4,1,6,SLB,90,SLB,SLB,1418245.674,14203062397,159.1973618,-8.069002414
159,1,Admin-0 country,6,Somalia,SOM,0,2,Sovereign country,Somalia,SOM,0,Somalia,SOM,0,Somalia,SOM,0,Somalia,Somalia,SOM,Somalia,,Som.,SO,Federal Republic of Somalia,2,8,6,7,SOM,706,SOM,SOM,3357104.376,2.76007E+11,45.62732172,4.827087524
160,1,Admin-0 country,5,Somaliland,SOL,0,2,Indeterminate,Somaliland,SOL,0,Somaliland,SOL,0,Somaliland,SOL,1,Somaliland,Somaliland,B30,Somaliland,,Solnd.,SL,Republic of Somaliland,3,6,5,2,SOM,-99,SOM,SOM,1495307.883,1.02364E+11,46.17830855,9.696633661
161,1,Admin-0 country,2,South Africa,ZAF,0,2,Sovereign country,South Africa,ZAF,0,South Africa,ZAF,0,South Africa,ZAF,0,South Africa,South Africa,ZAF,South Africa,,S.Af.,ZA,Republic of South Africa,2,3,4,2,ZAF,710,ZAF,ZAF,5526431.498,9.05588E+11,25.0756215,-29.01751175
162,1,Admin-0 country,2,South Korea,KOR,0,2,Sovereign country,South Korea,KOR,0,South Korea,KOR,0,South Korea,KOR,0,South Korea,Republic of Korea,KOR,Republic of Korea,,S.K.,KR,Republic of Korea,4,1,1,5,KOR,410,KOR,KOR,1398602.826,82753422009,127.8084078,36.41161054
163,1,Admin-0 country,2,Spain,ESP,0,2,Sovereign country,Spain,ESP,0,Spain,ESP,0,Spain,ESP,0,Spain,Spain,ESP,Spain,,Sp.,E,Kingdom of Spain,4,5,5,5,ESP,724,ESP,ESP,4399035.518,4.40356E+11,-3.576686895,40.34058573
164,1,Admin-0 country,3,Sri Lanka,LKA,0,2,Sovereign country,Sri Lanka,LKA,0,Sri Lanka,LKA,0,Sri Lanka,LKA,0,Sri Lanka,Sri Lanka,LKA,Sri Lanka,,Sri L.,LK,Democratic Socialist Republic of Sri Lanka,3,5,4,9,LKA,144,LKA,LKA,902362.3912,42387797595,80.65584954,7.614202862
165,1,Admin-0 country,6,Saint Kitts and Nevis,KNA,0,2,Sovereign country,Saint Kitts and Nevis,KNA,0,Saint Kitts and Nevis,KNA,0,Saint Kitts and Nevis,KNA,0,St. Kitts and Nevis,Saint Kitts and Nevis,KNA,Saint Kitts and Nevis,,St.K.N.,KN,Federation of Saint Kitts and Nevis,1,4,1,8,KNA,659,KNA,KNA,90922.47482,331646888.2,-62.66452413,17.25271994
166,1,Admin-0 country,6,Saint Vincent and the Grenadines,VCT,0,2,Sovereign country,Saint Vincent and the Grenadines,VCT,0,Saint Vincent and the Grenadines,VCT,0,Saint Vincent and the Grenadines,VCT,0,St. Vin. and Gren.,Saint Vincent and the Grenadines,VCT,St. Vin. and Gren.,,St.V.G.,VC,Saint Vincent and the Grenadines,1,1,5,7,VCT,670,VCT,VCT,72238.86913,241953469,-61.17154719,13.24371835
167,1,Admin-0 country,3,Sudan,SDN,0,2,Sovereign country,Sudan,SDN,0,Sudan,SDN,0,Sudan,SDN,0,Sudan,Sudan,SDN,Sudan,,Sudan,SD,Republic of the Sudan,2,6,4,1,SDN,729,SDN,SDN,4905505.544,1.18057E+12,30.01027597,16.06150108
168,1,Admin-0 country,4,Suriname,SUR,0,2,Sovereign country,Suriname,SUR,0,Suriname,SUR,0,Suriname,SUR,0,Suriname,Suriname,SUR,Suriname,,Sur.,SR,Republic of Suriname,1,4,7,6,SUR,740,SUR,SUR,1239867.572,99015018152,-55.87965669,4.040743682
169,1,Admin-0 country,4,Swaziland,SWZ,0,2,Sovereign country,Swaziland,SWZ,0,Swaziland,SWZ,0,Swaziland,SWZ,0,Swaziland,Swaziland,SWZ,Swaziland,,Swz.,SW,Kingdom of Swaziland,3,6,2,5,SWZ,748,SWZ,SWZ,427021.5689,11047515745,31.43208206,-26.52636774
170,1,Admin-0 country,3,Sweden,SWE,0,2,Sovereign country,Sweden,SWE,0,Sweden,SWE,0,Sweden,SWE,0,Sweden,Sweden,SWE,Sweden,,Swe.,S,Kingdom of Sweden,1,4,2,4,SWE,752,SWE,SWE,5472679.351,7.89856E+11,16.75133694,62.75668038
171,1,Admin-0 country,4,Switzerland,CHE,0,2,Sovereign country,Switzerland,CHE,0,Switzerland,CHE,0,Switzerland,CHE,0,Switzerland,Switzerland,CHE,Switzerland,,Switz.,CH,Swiss Confederation,5,2,7,3,CHE,756,CHE,CHE,1037314.126,41849308723,8.183124632,46.82451974
172,1,Admin-0 country,3,Syria,SYR,0,2,Sovereign country,Syria,SYR,0,Syria,SYR,0,Syria,SYR,0,Syria,Syria,SYR,Syria,,Syria,SYR,Syrian Arab Republic,2,6,2,6,SYR,760,SYR,SYR,1761880.862,1.53453E+11,38.45289248,35.04704272
173,1,Admin-0 country,3,Taiwan,TWN,0,2,Sovereign country,Taiwan,TWN,0,Taiwan,TWN,0,Taiwan,TWN,1,Taiwan,Taiwan,B77,Taiwan,,Taiwan,TW,,1,5,7,2,TWN,-99,TWN,TWN,768662.5952,22993017521,120.9127687,23.69510173
174,1,Admin-0 country,4,Tajikistan,TJK,0,2,Sovereign country,Tajikistan,TJK,0,Tajikistan,TJK,0,Tajikistan,TJK,0,Tajikistan,Tajikistan,TJK,Tajikistan,,Tjk.,TJ,Republic of Tajikistan,3,6,2,5,TJK,762,TJK,TJK,2298081.435,1.36509E+11,71.04720429,38.64387689
175,1,Admin-0 country,3,United Republic of Tanzania,TZA,0,2,Sovereign country,United Republic of Tanzania,TZA,0,Tanzania,TZA,0,Tanzania,TZA,0,Tanzania,Tanzania,TZA,Tanzania,,Tanz.,TZ,United Republic of Tanzania,3,6,2,2,TZA,834,TZA,TZA,3206089.265,5.56116E+11,34.80554856,-6.324160032
176,1,Admin-0 country,5,East Timor,TLS,0,2,Sovereign country,East Timor,TLS,0,East Timor,TLS,0,East Timor,TLS,0,Timor-Leste,Timor-Leste,TLS,Timor-Leste,,T.L.,TL,Democratic Republic of Timor-Leste,2,2,4,3,TLS,626,TLS,TLS,443300.4811,7849478064,125.9976082,-8.834600527
177,1,Admin-0 country,6,Togo,TGO,0,2,Sovereign country,Togo,TGO,0,Togo,TGO,0,Togo,TGO,0,Togo,Togo,TGO,Togo,,Togo,TG,Togolese Republic,3,1,3,5,TGO,768,TGO,TGO,1148427.691,43039232463,0.812302849,8.359866552
178,1,Admin-0 country,5,Trinidad and Tobago,TTO,0,2,Sovereign country,Trinidad and Tobago,TTO,0,Trinidad and Tobago,TTO,0,Trinidad and Tobago,TTO,0,Trinidad and Tobago,Trinidad and Tobago,TTO,Trinidad and Tobago,,Tr.T.,TT,Republic of Trinidad and Tobago,5,6,2,5,TTO,780,TTO,TTO,313209.688,3706744647,-61.05631616,10.46608255
179,1,Admin-0 country,3,Tunisia,TUN,0,2,Sovereign country,Tunisia,TUN,0,Tunisia,TUN,0,Tunisia,TUN,0,Tunisia,Tunisia,TUN,Tunisia,,Tun.,TN,Republic of Tunisia,4,3,3,2,TUN,788,TUN,TUN,2052396.792,1.45937E+11,9.481421694,34.16079554
180,1,Admin-0 country,2,Turkey,TUR,0,2,Sovereign country,Turkey,TUR,0,Turkey,TUR,0,Turkey,TUR,0,Turkey,Turkey,TUR,Turkey,,Tur.,TR,Republic of Turkey,6,3,8,4,TUR,792,TUR,TUR,5166627.78,6.91313E+11,35.41907252,39.0017242
181,1,Admin-0 country,4,Turkmenistan,TKM,0,2,Sovereign country,Turkmenistan,TKM,0,Turkmenistan,TKM,0,Turkmenistan,TKM,0,Turkmenistan,Turkmenistan,TKM,Turkmenistan,,Turkm.,TM,Turkmenistan,3,2,1,9,TKM,795,TKM,TKM,3870330.992,4.2122E+11,59.39965314,39.09678466
182,3,Admin-0 country,6,United States of America,US1,1,2,Dependency,United States Virgin Islands,VIR,0,United States Virgin Islands,VIR,0,United States Virgin Islands,VIR,0,U.S. Virgin Is.,United States Virgin Islands,VIR,U.S. Virgin Is.,,V.I. (U.S.),VI,Virgin Islands of the United States,4,5,1,1,VIR,850,VIR,VIR,65980.10081,168571126,-64.75973381,17.74780585
183,1,Admin-0 country,3,Uganda,UGA,0,2,Sovereign country,Uganda,UGA,0,Uganda,UGA,0,Uganda,UGA,0,Uganda,Uganda,UGA,Uganda,,Uga.,UG,Republic of Uganda,6,3,6,4,UGA,800,UGA,UGA,1642706.998,1.41988E+11,32.33990373,1.251822399
184,1,Admin-0 country,4,United Arab Emirates,ARE,0,2,Sovereign country,United Arab Emirates,ARE,0,United Arab Emirates,ARE,0,United Arab Emirates,ARE,0,United Arab Emirates,United Arab Emirates,ARE,United Arab Emirates,,U.A.E.,AE,United Arab Emirates,2,1,3,3,ARE,784,ARE,ARE,1132903.624,43432231520,54.27478544,23.84317389
185,1,Admin-0 country,2,United Kingdom,GB1,1,2,Country,United Kingdom,GBR,0,United Kingdom,GBR,0,United Kingdom,GBR,0,United Kingdom,United Kingdom,GBR,United Kingdom,,U.K.,GB,United Kingdom of Great Britain and Northern Ireland,6,6,6,3,GBR,826,GBR,GBR,5916952.969,3.11266E+11,-2.535600243,53.8621509
186,1,Admin-0 country,2,United States of America,US1,1,2,Country,United States of America,USA,0,United States of America,USA,0,United States,USA,0,United States of America,United States,USA,United States,,U.S.A.,US,United States of America,4,5,1,1,USA,840,USA,USA,36028732.43,9.92711E+12,-99.30449845,39.39748066
187,1,Admin-0 country,4,Uruguay,URY,0,2,Sovereign country,Uruguay,URY,0,Uruguay,URY,0,Uruguay,URY,0,Uruguay,Uruguay,URY,Uruguay,,Ury.,UY,Oriental Republic of Uruguay,1,2,2,10,URY,858,URY,URY,1419268.11,1.21619E+11,-56.08301278,-33.07914831
188,1,Admin-0 country,3,Uzbekistan,UZB,0,2,Sovereign country,Uzbekistan,UZB,0,Uzbekistan,UZB,0,Uzbekistan,UZB,0,Uzbekistan,Uzbekistan,UZB,Uzbekistan,,Uzb.,UZ,Republic of Uzbekistan,2,3,5,4,UZB,860,UZB,UZB,4661507.659,4.08508E+11,63.09203799,41.78408812
189,1,Admin-0 country,4,Vanuatu,VUT,0,2,Sovereign country,Vanuatu,VUT,0,Vanuatu,VUT,0,Vanuatu,VUT,0,Vanuatu,Vanuatu,VUT,Vanuatu,,Van.,VU,Republic of Vanuatu,6,3,7,3,VUT,548,VUT,VUT,457665.4266,4886322491,166.8437575,-15.22421824
190,1,Admin-0 country,3,Venezuela,VEN,0,2,Sovereign country,Venezuela,VEN,0,Venezuela,VEN,0,Venezuela,VEN,0,Venezuela,Venezuela,VEN,Venezuela,,Ven.,VE,Bolivarian Republic of Venezuela,1,3,1,4,VEN,862,VEN,VEN,4518287.338,5.57934E+11,-66.10570442,7.11992032
191,1,Admin-0 country,2,Vietnam,VNM,0,2,Sovereign country,Vietnam,VNM,0,Vietnam,VNM,0,Vietnam,VNM,0,Vietnam,Vietnam,VNM,Vietnam,,Viet.,VN,Socialist Republic of Vietnam,5,6,5,4,VNM,704,VNM,VNM,3931782.775,2.22947E+11,106.2873382,16.8504626
192,1,Admin-0 country,7,Western Sahara,SAH,0,2,Indeterminate,Western Sahara,SAH,0,Western Sahara,SAH,0,Western Sahara,SAH,1,W. Sahara,Western Sahara,B28,W. Sahara,,W. Sah.,WS,Sahrawi Arab Democratic Republic,4,7,4,4,ESH,732,MAR,SAH,1786588.061,66402500339,-12.01052277,24.44826838
193,1,Admin-0 country,3,Yemen,YEM,0,2,Sovereign country,Yemen,YEM,0,Yemen,YEM,0,Yemen,YEM,0,Yemen,Yemen,YEM,Yemen,,Yem.,YE,Republic of Yemen,5,3,3,11,YEM,887,YEM,YEM,2568833.516,2.56681E+11,47.56647434,15.84429861
194,1,Admin-0 country,3,Zambia,ZMB,0,2,Sovereign country,Zambia,ZMB,0,Zambia,ZMB,0,Zambia,ZMB,0,Zambia,Zambia,ZMB,Zambia,,Zambia,ZM,Republic of Zambia,5,8,5,13,ZMB,894,ZMB,ZMB,3749538.233,4.61566E+11,27.7198442,-13.51784479
195,1,Admin-0 country,3,Zimbabwe,ZWE,0,2,Sovereign country,Zimbabwe,ZWE,0,Zimbabwe,ZWE,0,Zimbabwe,ZWE,0,Zimbabwe,Zimbabwe,ZWE,Zimbabwe,,Zimb.,ZW,Republic of Zimbabwe,1,5,3,9,ZWE,716,ZWE,ZWE,2080417.777,2.50634E+11,29.94341439,-18.94161499
196,1,Admin-0 country,3,Malaysia,MYS,0,2,Sovereign country,Malaysia,MYS,0,Malaysia,MYS,0,Malaysia,MYS,0,Malaysia,Malaysia,MYS,Malaysia,,Malay.,MY,Malaysia,2,4,3,6,MYS,458,MYS,MYS,3694393.889,2.04453E+11,114.8064378,3.615227679
198,1,Admin-0 country,3,Thailand,THA,0,2,Sovereign country,Thailand,THA,0,Thailand,THA,0,Thailand,THA,0,Thailand,Thailand,THA,Thailand,,Thai.,TH,Kingdom of Thailand,3,6,8,1,THA,764,THA,THA,4210840.508,3.31968E+11,101.0334992,14.88602356
144,1,Admin-0 country,2,Ukraine,UKR,0,2,Sovereign country,Ukraine,UKR,0,Ukraine,UKR,0,Ukraine,UKR,0,Ukraine,Ukraine,UKR,Ukraine,,Ukr.,UA,Ukraine,5,1,6,3,UKR,804,UKR,UKR,79995781.13,3.06248E+13,31.3289944,48.97221275
144,1,Admin-0 country,2,Russia,RUS,0,2,Sovereign country,Russia,RUS,0,Russia,RUS,0,Russia,RUS,0,Russia,Russian Federation,RUS,Russia,,Rus.,RUS,Russian Federation,2,5,7,7,RUS,643,RUS,RUS,79995781.13,3.06248E+13,98.99672965,61.64887607